[{"OBJECT_NAME":"OBJECT A","OBJECT_ID":"2025-013A","EPOCH":"2026-03-09T23:29:31.895232","MEAN_MOTION":15.29260221,"ECCENTRICITY":0.0010321,"INCLINATION":97.6364,"RA_OF_ASC_NODE":244.5149,"ARG_OF_PERICENTER":282.3775,"MEAN_ANOMALY":77.6309,"EPHEMERIS_TYPE":0,"CLASSIFICATION_TYPE":"U","NORAD_CAT_ID":62729,"ELEMENT_SET_NO":999,"REV_AT_EPOCH":6276,"BSTAR":0.0013206527,"MEAN_MOTION_DOT":0.00037616,"MEAN_MOTION_DDOT":0},{"OBJECT_NAME":"STARLINK-33759","OBJECT_ID":"2025-101P","EPOCH":"2026-03-09T03:20:32.528832","MEAN_MOTION":15.275816,"ECCENTRICITY":0.00019282,"INCLINATION":43.003,"RA_OF_ASC_NODE":0.8461,"ARG_OF_PERICENTER":252.9816,"MEAN_ANOMALY":107.0825,"EPHEMERIS_TYPE":0,"CLASSIFICATION_TYPE":"U","NORAD_CAT_ID":64007,"ELEMENT_SET_NO":999,"REV_AT_EPOCH":4697,"BSTAR":0.001419561,"MEAN_MOTION_DOT":0.0003901,"MEAN_MOTION_DDOT":0}]
